COSMOS 2534 [GLONASS-M] 
1 44299U 19030A   26177.54883840  .00000105  00000+0  00000+0 0  9998
2 44299  64.3693 192.3013 0013559 274.9823 206.0905  2.13102489 55123
BEIDOU-3 IGSO-2         
1 44337U 19035A   26176.67713823 -.00000065  00000+0  00000+0 0  9998
2 44337  55.2491 158.7880 0039503 216.5820 261.6369  1.00264102 25758
NAVSTAR 78 (USA 293)    
1 44506U 19056A   26176.86217745 -.00000105  00000+0  00000+0 0  9997
2 44506  55.6325 330.7975 0062408 197.6705 333.6981  2.00570107 50242
BEIDOU-3 M24            
1 44542U 19061A   26177.37068101  .00000097  00000+0  00000+0 0  9999
2 44542  54.3964 182.4177 0008515 358.5798   1.4485  1.86229227 45961
BEIDOU-3 M23            
1 44543U 19061B   26177.23956123  .00000098  00000+0  00000+0 0  9996
2 44543  54.3955 182.3906 0005821 338.2299 205.4302  1.86227611 45968
EUTELSAT 5 WEST B       
1 44624U 19067A   26177.59333486 -.00000031  00000+0  00000+0 0  9990
2 44624   0.0622   5.0713 0003421  89.9925  28.2473  1.00271589 24533
BEIDOU-3 M22            
1 44793U 19078A   26177.21063068 -.00000101  00000+0  00000+0 0  9992
2 44793  53.9269 299.5096 0006246  51.5881 308.4637  1.86227239 44817
BEIDOU-3 M21            
1 44794U 19078B   26176.81356450 -.00000103  00000+0  00000+0 0  9990
2 44794  53.9001 299.4845 0004119  50.7035 309.3282  1.86227852 44819
COSMOS 2544 [GLONASS-M] 
1 44850U 19088A   26176.94531591 -.00000063  00000+0  00000+0 0  9994
2 44850  65.5707  73.4383 0012923 257.6247 102.2670  2.13102928 50901
BEIDOU-3 M19            
1 44864U 19090A   26177.32812167 -.00000086  00000+0  00000+0 0  9991
2 44864  56.5668  62.4878 0017504 297.5955 244.8186  1.86231645 44409
BEIDOU-3 M20            
1 44865U 19090B   26177.15791703 -.00000087  00000+0  00000+0 0  9996
2 44865  56.5685  62.5279 0015273 312.0808 205.8058  1.86231543 44385
BEIDOU-3 G2             
1 45344U 20017A   26177.61023159 -.00000132  00000+0  00000+0 0  9995
2 45344   2.8835  47.4996 0002543  38.3700 128.6373  1.00272043 23354
COSMOS 2545 [GLONASS-M] 
1 45358U 20018A   26173.38622942 -.00000076  00000+0  00000+0 0  9993
2 45358  64.3518 312.2361 0008551 229.7005 130.2180  2.13102345 48778
BEIDOU-3 G3             
1 45807U 20040A   26177.61612493 -.00000345  00000+0  00000+0 0  9996
2 45807   2.4708  67.4776 0002651 328.6612 210.9371  1.00274724 22167
NAVSTAR 79 (USA 304)    
1 45854U 20041A   26177.39576767 -.00000083  00000+0  00000+0 0  9996
2 45854  56.6754  28.5856 0064284 204.6049 290.0672  2.00558766 44221
GALAXY 30 (G-30)        
1 46114U 20056C   26177.56958808  .00000000  00000+0  00000+0 0  9999
2 46114   0.0275  16.3069 0002295  77.2180 261.2035  1.00270770 21387
COSMOS 2547 [GLONASS-K] 
1 46805U 20075A   26177.32991645  .00000106  00000+0  00000+0 0  9994
2 46805  64.5999 192.1702 0009405 239.7382 120.2220  2.13100201 44109
NAVSTAR 80 (USA 309)    
1 46826U 20078A   26177.24606884  .00000083  00000+0  00000+0 0  9993
2 46826  53.9789 210.4109 0073823 207.4122 155.8219  2.00565126 41695
NAVSTAR 81 (USA 319)    
1 48859U 21054A   26177.46062032 -.00000105  00000+0  00000+0 0  9997
2 48859  55.1699 332.0865 0025672 228.3476 116.1069  2.00568728 36935
QZS-1R (MICHIBIKI-1R)   
1 49336U 21096A   26177.61891061 -.00000312  00000+0  00000+0 0  9993
2 49336  37.4804  79.4425 0755634 271.9684 279.4688  1.00253032 17100
GSAT0223 (GALILEO 27)   
1 49809U 21116A   26174.44047914 -.00000098  00000+0  00000+0 0  9990
2 49809  57.1590 341.5051 0001600 183.5383 174.0725  1.70476308 28288
GSAT0224 (GALILEO 28)   
1 49810U 21116B   26176.61813146 -.00000097  00000+0  00000+0 0  9990
2 49810  57.1582 341.4456 0001373 160.1269 206.5880  1.70476480 28352
COSMOS 2557 [GLONASS-K] 
1 52984U 22075A   26177.49413669 -.00000086  00000+0  00000+0 0  9992
2 52984  64.2928 314.1567 0010281 273.4415  86.4299  2.13102253 30916
COSMOS 2559 [GLONASS-K] 
1 54031U 22130A   26177.31378409 -.00000086  00000+0  00000+0 0  9992
2 54031  64.2654 314.2468 0012739 178.9915 181.0006  2.13101803 28883
COSMOS 2564 [GLONASS-M] 
1 54377U 22161A   26177.15703373  .00000107  00000+0  00000+0 0  9996
2 54377  64.7425 192.4139 0012256 225.0447 134.9097  2.13102114 27822
NAVSTAR 82 (USA 343)    
1 55268U 23009A   26176.93387399  .00000044  00000+0  00000+0 0  9999
2 55268  55.1240 148.1751 0006264 317.1527  45.3707  2.00571086 25424
BEIDOU-3 G4             
1 56564U 23066A   26177.62207095 -.00000269  00000+0  00000+0 0  9993
2 56564   0.4762 333.9017 0004798 175.4570 129.3872  1.00271241 11484
NVS-01 (IRNSS-1J)       
1 56759U 23076A   26177.54870282 -.00000322  00000+0  00000+0 0  9995
2 56759   2.1440 243.9154 0002806  13.0793 344.7481  1.00275014 11207
COSMOS 2569 [GLONASS-K2]
1 57517U 23114A   26177.16933498 -.00000062  00000+0  00000+0 0  9999
2 57517  65.3071  72.3176 0010328 296.7158  63.2172  2.13103857 22451
BEIDOU-3 M28            
1 58654U 23207A   26176.89061017 -.00000090  00000+0  00000+0 0  9994
2 58654  55.7603  62.0093 0003001 352.5208   7.5157  1.86229879 17000
BEIDOU-3 M26            
1 58655U 23207B   26177.22506740 -.00000088  00000+0  00000+0 0  9997
2 58655  55.7629  61.9846 0002695 322.2397  37.7837  1.86229867 16998
