OBJECT_NAME,OBJECT_ID,EPOCH,MEAN_MOTION,ECCENTRICITY,INCLINATION,RA_OF_ASC_NODE,ARG_OF_PERICENTER,MEAN_ANOMALY,EPHEMERIS_TYPE,CLASSIFICATION_TYPE,NORAD_CAT_ID,ELEMENT_SET_NO,REV_AT_EPOCH,BSTAR,MEAN_MOTION_DOT,MEAN_MOTION_DDOT
COSMOS 2534 (758),2019-030A,2026-06-26T13:10:19.637760,2.13102489,.00135593,64.3693,192.3013,274.9823,206.0905,0,U,44299,999,5512,0,.105E-5,0
BEIDOU-3 IGSO-2 (C39),2019-035A,2026-06-25T16:15:04.743072,1.00264102,.00395033,55.2491,158.7880,216.5820,261.6369,0,U,44337,999,2575,0,-.65E-6,0
GPS BIII-2  (PRN 18),2019-056A,2026-06-25T20:41:32.131680,2.00570107,.00624085,55.6325,330.7975,197.6705,333.6981,0,U,44506,999,5024,0,-.105E-5,0
BEIDOU-3 M24 (C46),2019-061A,2026-06-26T08:53:46.839264,1.86229227,.00085154,54.3964,182.4177,358.5798,1.4485,0,U,44542,999,4596,0,.97E-6,0
BEIDOU-3 M23 (C45),2019-061B,2026-06-26T05:44:58.090272,1.86227611,.00058218,54.3955,182.3906,338.2299,205.4302,0,U,44543,999,4596,0,.98E-6,0
EUTELSAT 5 WEST B (EGNOS/PRN 121),2019-067A,2026-06-26T14:14:24.131904,1.00271589,.00034219,0.0622,5.0713,89.9925,28.2473,0,U,44624,999,2453,0,-.31E-6,0
BEIDOU-3 M22 (C44),2019-078A,2026-06-26T05:03:18.490752,1.86227239,.0006246,53.9269,299.5096,51.5881,308.4637,0,U,44793,999,4481,0,-.101E-5,0
BEIDOU-3 M21 (C43),2019-078B,2026-06-25T19:31:31.972800,1.86227852,.00041197,53.9001,299.4845,50.7035,309.3282,0,U,44794,999,4481,0,-.103E-5,0
COSMOS 2544 (759),2019-088A,2026-06-25T22:41:15.294624,2.13102928,.00129231,65.5707,73.4383,257.6247,102.2670,0,U,44850,999,5090,0,-.63E-6,0
BEIDOU-3 M19 (C41),2019-090A,2026-06-26T07:52:29.712288,1.86231645,.00175043,56.5668,62.4878,297.5955,244.8186,0,U,44864,999,4440,0,-.86E-6,0
BEIDOU-3 M20 (C42),2019-090B,2026-06-26T03:47:24.031392,1.86231543,.00152731,56.5685,62.5279,312.0808,205.8058,0,U,44865,999,4438,0,-.87E-6,0
BEIDOU-3 G2 (C60),2020-017A,2026-06-26T14:38:44.009376,1.00272043,.00025433,2.8835,47.4996,38.3700,128.6373,0,U,45344,999,2335,0,-.132E-5,0
COSMOS 2545 (760),2020-018A,2026-06-22T09:16:10.221888,2.13102345,.00085514,64.3518,312.2361,229.7005,130.2180,0,U,45358,999,4877,0,-.76E-6,0
BEIDOU-3 G3 (C61),2020-040A,2026-06-26T14:47:13.193952,1.00274724,.00026514,2.4708,67.4776,328.6612,210.9371,0,U,45807,999,2216,0,-.345E-5,0
GPS BIII-3  (PRN 23),2020-041A,2026-06-26T09:29:54.326688,2.00558766,.00642848,56.6754,28.5856,204.6049,290.0672,0,U,45854,999,4422,0,-.83E-6,0
GALAXY 30 (WAAS/PRN 135),2020-056C,2026-06-26T13:40:12.410112,1.00270770,.00022953,0.0275,16.3069,77.2180,261.2035,0,U,46114,999,2138,0,0,0
COSMOS 2547 (705K),2020-075A,2026-06-26T07:55:04.781280,2.13100201,.00094058,64.5999,192.1702,239.7382,120.2220,0,U,46805,999,4410,0,.106E-5,0
GPS BIII-4  (PRN 14),2020-078A,2026-06-26T05:54:20.347776,2.00565126,.00738232,53.9789,210.4109,207.4122,155.8219,0,U,46826,999,4169,0,.83E-6,0
GPS BIII-5  (PRN 11),2021-054A,2026-06-26T11:03:17.595648,2.00568728,.00256721,55.1699,332.0865,228.3476,116.1069,0,U,48859,999,3693,0,-.105E-5,0
QZS-1R (QZSS/PRN 196),2021-096A,2026-06-26T14:51:13.876704,1.00253032,.07556349,37.4804,79.4425,271.9684,279.4688,0,U,49336,999,1710,0,-.312E-5,0
GSAT0223 (GALILEO 27),2021-116A,2026-06-23T10:34:17.397696,1.70476308,.00016008,57.1590,341.5051,183.5383,174.0725,0,U,49809,999,2828,0,-.98E-6,0
GSAT0224 (GALILEO 28),2021-116B,2026-06-25T14:50:06.558144,1.70476480,.00013732,57.1582,341.4456,160.1269,206.5880,0,U,49810,999,2835,0,-.97E-6,0
COSMOS 2557 (706K),2022-075A,2026-06-26T11:51:33.410016,2.13102253,.00102816,64.2928,314.1567,273.4415,86.4299,0,U,52984,999,3091,0,-.86E-6,0
COSMOS 2559 (707K),2022-130A,2026-06-26T07:31:50.945376,2.13101803,.00127399,64.2654,314.2468,178.9915,181.0006,0,U,54031,999,2888,0,-.86E-6,0
COSMOS 2564 (761),2022-161A,2026-06-26T03:46:07.714272,2.13102114,.00122568,64.7425,192.4139,225.0447,134.9097,0,U,54377,999,2782,0,.107E-5,0
GPS BIII-6  (PRN 28),2023-009A,2026-06-25T22:24:46.712736,2.00571086,.00062645,55.1240,148.1751,317.1527,45.3707,0,U,55268,999,2542,0,.44E-6,0
BEIDOU-3 G4 (C62),2023-066A,2026-06-26T14:55:46.930080,1.00271241,.00047983,0.4762,333.9017,175.4570,129.3872,0,U,56564,999,1148,0,-.269E-5,0
NVS-01 (IRNSS-1J),2023-076A,2026-06-26T13:10:07.923648,1.00275014,.00028062,2.1440,243.9154,13.0793,344.7481,0,U,56759,999,1120,0,-.322E-5,0
COSMOS 2569 (703K),2023-114A,2026-06-26T04:03:50.542272,2.13103857,.0010328,65.3071,72.3176,296.7158,63.2172,0,U,57517,999,2245,0,-.62E-6,0
BEIDOU-3 M28 (C50),2023-207A,2026-06-25T21:22:28.718688,1.86229879,.00030015,55.7603,62.0093,352.5208,7.5157,0,U,58654,999,1700,0,-.9E-6,0
BEIDOU-3 M26 (C48),2023-207B,2026-06-26T05:24:05.823360,1.86229867,.00026952,55.7629,61.9846,322.2397,37.7837,0,U,58655,999,1699,0,-.88E-6,0
